[{"OBJECT_NAME":"STARLINK-31004","OBJECT_ID":"2023-191W","EPOCH":"2026-03-09T04:05:03.720480","MEAN_MOTION":15.26740931,"ECCENTRICITY":0.00010168,"INCLINATION":43.0025,"RA_OF_ASC_NODE":106.2086,"ARG_OF_PERICENTER":256.7184,"MEAN_ANOMALY":103.3554,"EPHEMERIS_TYPE":0,"CLASSIFICATION_TYPE":"U","NORAD_CAT_ID":58528,"ELEMENT_SET_NO":999,"REV_AT_EPOCH":12539,"BSTAR":-2.6480248e-5,"MEAN_MOTION_DOT":-9.7e-6,"MEAN_MOTION_DDOT":0},{"OBJECT_NAME":"SL-3 R\/B","OBJECT_ID":"1982-027B","EPOCH":"2026-03-09T22:44:40.208640","MEAN_MOTION":15.28335844,"ECCENTRICITY":0.00065199,"INCLINATION":81.188,"RA_OF_ASC_NODE":37.4466,"ARG_OF_PERICENTER":276.581,"MEAN_ANOMALY":83.4683,"EPHEMERIS_TYPE":0,"CLASSIFICATION_TYPE":"U","NORAD_CAT_ID":13121,"ELEMENT_SET_NO":999,"REV_AT_EPOCH":39859,"BSTAR":0.00030526741,"MEAN_MOTION_DOT":8.453e-5,"MEAN_MOTION_DDOT":0}]
